{"type": "FeatureCollection", "features": [ {"type": "Feature", "properties": {"norad_id": 35156, "name": "FENGYUN 1C DEB", "group": "fengyun-1c-debris", "lat": -7.719950682446472, "lon": 157.9603378419511, "alt_km": 846.2649547284718, "timestamp": "2025-12-18T21:31:51.289049+00:00", "meta": {"OBJECT_NAME": "FENGYUN 1C DEB", "OBJECT_ID": "1999-025DML", "EPOCH": "2025-12-12T16:32:42.860544", "MEAN_MOTION": 14.10626157, "ECCENTRICITY": 0.00370025, "INCLINATION": 98.7527, "RA_OF_ASC_NODE": 333.1123, "ARG_OF_PERICENTER": 148.5895, "MEAN_ANOMALY": 211.7497, "EPHEMERIS_TYPE": 0, "CLASSIFICATION_TYPE": "U", "NORAD_CAT_ID": 35156, "ELEMENT_SET_NO": 999, "REV_AT_EPOCH": 64043, "BSTAR": 0.00049181464, "MEAN_MOTION_DOT": 8.41e-06, "MEAN_MOTION_DDOT": 0}, "tle": {"line1": "1 35156U 99025DML 25346.68938496  .00000841  00000+0  49181-3 0  9996", "line2": "2 35156  98.7527 333.1123 0037002 148.5895 211.7497 14.10626157640439"}}, "geometry": {"type": "Point", "coordinates": [157.9603378419511, -7.719950682446472]}}, {"type": "Feature", "properties": {"norad_id": 35159, "name": "FENGYUN 1C DEB", "group": "fengyun-1c-debris", "lat": -79.19640012411074, "lon": 122.99043778357894, "alt_km": 753.0115496158687, "timestamp": "2025-12-18T21:31:51.289060+00:00", "meta": {"OBJECT_NAME": "FENGYUN 1C DEB", "OBJECT_ID": "1999-025DMP", "EPOCH": "2025-12-18T03:56:12.547968", "MEAN_MOTION": 14.45218567, "ECCENTRICITY": 0.00125233, "INCLINATION": 98.8399, "RA_OF_ASC_NODE": 67.5884, "ARG_OF_PERICENTER": 158.7222, "MEAN_ANOMALY": 265.4799, "EPHEMERIS_TYPE": 0, "CLASSIFICATION_TYPE": "U", "NORAD_CAT_ID": 35159, "ELEMENT_SET_NO": 999, "REV_AT_EPOCH": 61559, "BSTAR": 0.0014431144, "MEAN_MOTION_DOT": 5.018e-05, "MEAN_MOTION_DDOT": 0}, "tle": {"line1": "1 35159U 99025DMP 25352.16403412  .00005018  00000+0  14431-2 0  9994", "line2": "2 35159  98.8399  67.5884 0012523 158.7222 265.4799 14.45218567615590"}}, "geometry": {"type": "Point", "coordinates": [122.99043778357894, -79.19640012411074]}}, {"type": "Feature", "properties": {"norad_id": 35160, "name": "FENGYUN 1C DEB", "group": "fengyun-1c-debris", "lat": 28.468271702113114, "lon": -67.27448948217527, "alt_km": 726.1965219239355, "timestamp": "2025-12-18T21:31:51.289071+00:00", "meta": {"OBJECT_NAME": "FENGYUN 1C DEB", "OBJECT_ID": "1999-025DMQ", "EPOCH": "2025-12-16T13:37:44.190912", "MEAN_MOTION": 14.35976797, "ECCENTRICITY": 0.01760845, "INCLINATION": 99.155, "RA_OF_ASC_NODE": 105.2355, "ARG_OF_PERICENTER": 228.1924, "MEAN_ANOMALY": 130.4106, "EPHEMERIS_TYPE": 0, "CLASSIFICATION_TYPE": "U", "NORAD_CAT_ID": 35160, "ELEMENT_SET_NO": 999, "REV_AT_EPOCH": 64986, "BSTAR": 0.00041002814, "MEAN_MOTION_DOT": 1.364e-05, "MEAN_MOTION_DDOT": 0}, "tle": {"line1": "1 35160U 99025DMQ 25350.56787258  .00001364  00000+0  41003-3 0  9997", "line2": "2 35160  99.1550 105.2355 0176084 228.1924 130.4106 14.35976797649867"}}, "geometry": {"type": "Point", "coordinates": [-67.27448948217527, 28.468271702113114]}}, {"type": "Feature", "properties": {"norad_id": 35165, "name": "FENGYUN 1C DEB", "group": "fengyun-1c-debris", "lat": -55.56380909304496, "lon": -108.23605150992212, "alt_km": 800.1763787501641, "timestamp": "2025-12-18T21:31:51.289081+00:00", "meta": {"OBJECT_NAME": "FENGYUN 1C DEB", "OBJECT_ID": "1999-025DMV", "EPOCH": "2025-12-18T05:21:32.210208", "MEAN_MOTION": 14.33859708, "ECCENTRICITY": 0.00204642, "INCLINATION": 98.8788, "RA_OF_ASC_NODE": 84.2512, "ARG_OF_PERICENTER": 46.5286, "MEAN_ANOMALY": 313.7595, "EPHEMERIS_TYPE": 0, "CLASSIFICATION_TYPE": "U", "NORAD_CAT_ID": 35165, "ELEMENT_SET_NO": 999, "REV_AT_EPOCH": 89799, "BSTAR": 0.0017312247, "MEAN_MOTION_DOT": 4.787e-05, "MEAN_MOTION_DDOT": 0}, "tle": {"line1": "1 35165U 99025DMV 25352.22328947  .00004787  00000+0  17312-2 0  9990", "line2": "2 35165  98.8788  84.2512 0020464  46.5286 313.7595 14.33859708897992"}}, "geometry": {"type": "Point", "coordinates": [-108.23605150992212, -55.56380909304496]}}, {"type": "Feature", "properties": {"norad_id": 35167, "name": "FENGYUN 1C DEB", "group": "fengyun-1c-debris", "lat": -55.5207422721837, "lon": -1.5653656410251728, "alt_km": 868.4151568389179, "timestamp": "2025-12-18T21:31:51.289092+00:00", "meta": {"OBJECT_NAME": "FENGYUN 1C DEB", "OBJECT_ID": "1999-025DMX", "EPOCH": "2025-12-17T22:18:45.149472", "MEAN_MOTION": 14.31170783, "ECCENTRICITY": 0.02295949, "INCLINATION": 98.4497, "RA_OF_ASC_NODE": 344.992, "ARG_OF_PERICENTER": 188.7522, "MEAN_ANOMALY": 170.9628, "EPHEMERIS_TYPE": 0, "CLASSIFICATION_TYPE": "U", "NORAD_CAT_ID": 35167, "ELEMENT_SET_NO": 999, "REV_AT_EPOCH": 70094, "BSTAR": 0.00031462149, "MEAN_MOTION_DOT": 1.059e-05, "MEAN_MOTION_DDOT": 0}, "tle": {"line1": "1 35167U 99025DMX 25351.92968923  .00001059  00000+0  31462-3 0  9994", "line2": "2 35167  98.4497 344.9920 0229594 188.7522 170.9628 14.31170783700948"}}, "geometry": {"type": "Point", "coordinates": [-1.5653656410251728, -55.5207422721837]}}, {"type": "Feature", "properties": {"norad_id": 35168, "name": "FENGYUN 1C DEB", "group": "fengyun-1c-debris", "lat": -76.54804774959865, "lon": 26.860689849652914, "alt_km": 925.9384559930631, "timestamp": "2025-12-18T21:31:51.289102+00:00", "meta": {"OBJECT_NAME": "FENGYUN 1C DEB", "OBJECT_ID": "1999-025DMY", "EPOCH": "2025-12-11T11:53:15.848448", "MEAN_MOTION": 14.15522112, "ECCENTRICITY": 0.01260569, "INCLINATION": 98.2752, "RA_OF_ASC_NODE": 237.4634, "ARG_OF_PERICENTER": 131.2558, "MEAN_ANOMALY": 229.9558, "EPHEMERIS_TYPE": 0, "CLASSIFICATION_TYPE": "U", "NORAD_CAT_ID": 35168, "ELEMENT_SET_NO": 999, "REV_AT_EPOCH": 57906, "BSTAR": 0.00034767464, "MEAN_MOTION_DOT": 6.96e-06, "MEAN_MOTION_DDOT": 0}, "tle": {"line1": "1 35168U 99025DMY 25345.49532232  .00000696  00000+0  34767-3 0  9997", "line2": "2 35168  98.2752 237.4634 0126056 131.2558 229.9558 14.15522112579063"}}, "geometry": {"type": "Point", "coordinates": [26.860689849652914, -76.54804774959865]}}, {"type": "Feature", "properties": {"norad_id": 35169, "name": "FENGYUN 1C DEB", "group": "fengyun-1c-debris", "lat": -59.15183602746499, "lon": 41.452931342018886, "alt_km": 798.7975712947964, "timestamp": "2025-12-18T21:31:51.289112+00:00", "meta": {"OBJECT_NAME": "FENGYUN 1C DEB", "OBJECT_ID": "1999-025DMZ", "EPOCH": "2025-12-13T21:54:45.837792", "MEAN_MOTION": 14.5866776, "ECCENTRICITY": 0.01527117, "INCLINATION": 99.1288, "RA_OF_ASC_NODE": 231.5975, "ARG_OF_PERICENTER": 104.1831, "MEAN_ANOMALY": 257.6385, "EPHEMERIS_TYPE": 0, "CLASSIFICATION_TYPE": "U", "NORAD_CAT_ID": 35169, "ELEMENT_SET_NO": 999, "REV_AT_EPOCH": 65797, "BSTAR": 0.00059843273, "MEAN_MOTION_DOT": 3.218e-05, "MEAN_MOTION_DDOT": 0}, "tle": {"line1": "1 35169U 99025DMZ 25347.91303053  .00003218  00000+0  59843-3 0  9999", "line2": "2 35169  99.1288 231.5975 0152711 104.1831 257.6385 14.58667760657970"}}, "geometry": {"type": "Point", "coordinates": [41.452931342018886, -59.15183602746499]}}, {"type": "Feature", "properties": {"norad_id": 35171, "name": "FENGYUN 1C DEB", "group": "fengyun-1c-debris", "lat": -24.97554609057553, "lon": 148.35686686985272, "alt_km": 831.8602672853094, "timestamp": "2025-12-18T21:31:51.289122+00:00", "meta": {"OBJECT_NAME": "FENGYUN 1C DEB", "OBJECT_ID": "1999-025DNB", "EPOCH": "2025-12-17T21:33:01.857888", "MEAN_MOTION": 13.94988633, "ECCENTRICITY": 0.01381219, "INCLINATION": 99.0078, "RA_OF_ASC_NODE": 143.144, "ARG_OF_PERICENTER": 304.4943, "MEAN_ANOMALY": 54.3238, "EPHEMERIS_TYPE": 0, "CLASSIFICATION_TYPE": "U", "NORAD_CAT_ID": 35171, "ELEMENT_SET_NO": 999, "REV_AT_EPOCH": 88630, "BSTAR": 0.0013902005, "MEAN_MOTION_DOT": 1.981e-05, "MEAN_MOTION_DDOT": 0}, "tle": {"line1": "1 35171U 99025DNB 25351.89793817  .00001981  00000+0  13902-2 0  9995", "line2": "2 35171  99.0078 143.1440 0138121 304.4943  54.3238 13.94988633886306"}}, "geometry": {"type": "Point", "coordinates": [148.35686686985272, -24.97554609057553]}}, {"type": "Feature", "properties": {"norad_id": 35173, "name": "FENGYUN 1C DEB", "group": "fengyun-1c-debris", "lat": 79.80526827538466, "lon": -42.12540156626041, "alt_km": 1195.036189155633, "timestamp": "2025-12-18T21:31:51.289132+00:00", "meta": {"OBJECT_NAME": "FENGYUN 1C DEB", "OBJECT_ID": "1999-025DND", "EPOCH": "2025-12-16T00:47:59.591040", "MEAN_MOTION": 13.3734937, "ECCENTRICITY": 0.04902254, "INCLINATION": 99.7848, "RA_OF_ASC_NODE": 61.4638, "ARG_OF_PERICENTER": 205.6396, "MEAN_ANOMALY": 151.9668, "EPHEMERIS_TYPE": 0, "CLASSIFICATION_TYPE": "U", "NORAD_CAT_ID": 35173, "ELEMENT_SET_NO": 999, "REV_AT_EPOCH": 65873, "BSTAR": 0.0018387485, "MEAN_MOTION_DOT": 1.881e-05, "MEAN_MOTION_DDOT": 0}, "tle": {"line1": "1 35173U 99025DND 25350.03332860  .00001881  00000+0  18387-2 0  9990", "line2": "2 35173  99.7848  61.4638 0490225 205.6396 151.9668 13.37349370658732"}}, "geometry": {"type": "Point", "coordinates": [-42.12540156626041, 79.80526827538466]}}, {"type": "Feature", "properties": {"norad_id": 35174, "name": "FENGYUN 1C DEB", "group": "fengyun-1c-debris", "lat": -75.90032857630284, "lon": 7.089951994635965, "alt_km": 625.2061527667847, "timestamp": "2025-12-18T21:31:51.289142+00:00", "meta": {"OBJECT_NAME": "FENGYUN 1C DEB", "OBJECT_ID": "1999-025DNE", "EPOCH": "2025-12-13T04:07:25.072608", "MEAN_MOTION": 14.98877767, "ECCENTRICITY": 0.01541479, "INCLINATION": 98.9697, "RA_OF_ASC_NODE": 321.54, "ARG_OF_PERICENTER": 181.4297, "MEAN_ANOMALY": 178.6503, "EPHEMERIS_TYPE": 0, "CLASSIFICATION_TYPE": "U", "NORAD_CAT_ID": 35174, "ELEMENT_SET_NO": 999, "REV_AT_EPOCH": 90172, "BSTAR": 0.0023807921, "MEAN_MOTION_DOT": 0.0003695, "MEAN_MOTION_DDOT": 0}, "tle": {"line1": "1 35174U 99025DNE 25347.17181797  .00036950  00000+0  23808-2 0  9992", "line2": "2 35174  98.9697 321.5400 0154147 181.4297 178.6503 14.98877767901722"}}, "geometry": {"type": "Point", "coordinates": [7.089951994635965, -75.90032857630284]}}]}